[{"OBJECT_NAME":"ONEWEB-0312","OBJECT_ID":"2021-075Z","EPOCH":"2026-05-07T04:21:10.544256","MEAN_MOTION":13.17649253,"ECCENTRICITY":0.0001572,"INCLINATION":87.9176,"RA_OF_ASC_NODE":14.0243,"ARG_OF_PERICENTER":90.0213,"MEAN_ANOMALY":270.1099,"EPHEMERIS_TYPE":0,"CLASSIFICATION_TYPE":"U","NORAD_CAT_ID":49098,"ELEMENT_SET_NO":999,"REV_AT_EPOCH":22820,"BSTAR":-8.2058e-06,"MEAN_MOTION_DOT":1e-07,"MEAN_MOTION_DDOT":0.0},{"OBJECT_NAME":"ONEWEB-0313","OBJECT_ID":"2021-075AA","EPOCH":"2026-05-07T04:28:17.422464","MEAN_MOTION":13.17648428,"ECCENTRICITY":0.0001792,"INCLINATION":87.9167,"RA_OF_ASC_NODE":14.0303,"ARG_OF_PERICENTER":85.1971,"MEAN_ANOMALY":274.9365,"EPHEMERIS_TYPE":0,"CLASSIFICATION_TYPE":"U","NORAD_CAT_ID":49099,"ELEMENT_SET_NO":999,"REV_AT_EPOCH":22819,"BSTAR":0.00019139,"MEAN_MOTION_DOT":8.7e-07,"MEAN_MOTION_DDOT":0.0},{"OBJECT_NAME":"ONEWEB-0314","OBJECT_ID":"2021-075AB","EPOCH":"2026-05-07T05:29:13.039296","MEAN_MOTION":13.17650318,"ECCENTRICITY":0.0001555,"INCLINATION":87.9182,"RA_OF_ASC_NODE":13.9895,"ARG_OF_PERICENTER":90.7277,"MEAN_ANOMALY":269.4033,"EPHEMERIS_TYPE":0,"CLASSIFICATION_TYPE":"U","NORAD_CAT_ID":49100,"ELEMENT_SET_NO":999,"REV_AT_EPOCH":22817,"BSTAR":7.4341e-05,"MEAN_MOTION_DOT":4.2e-07,"MEAN_MOTION_DDOT":0.0},{"OBJECT_NAME":"ONEWEB-0315","OBJECT_ID":"2021-075AC","EPOCH":"2026-05-07T04:37:47.012736","MEAN_MOTION":13.12443297,"ECCENTRICITY":0.0001981,"INCLINATION":87.8987,"RA_OF_ASC_NODE":358.7918,"ARG_OF_PERICENTER":89.7762,"MEAN_ANOMALY":270.3594,"EPHEMERIS_TYPE":0,"CLASSIFICATION_TYPE":"U","NORAD_CAT_ID":49101,"ELEMENT_SET_NO":999,"REV_AT_EPOCH":22979,"BSTAR":-0.00040539,"MEAN_MOTION_DOT":-1.33e-06,"MEAN_MOTION_DDOT":0.0},{"OBJECT_NAME":"ONEWEB-0316","OBJECT_ID":"2021-075AD","EPOCH":"2026-05-07T02:37:50.068128","MEAN_MOTION":13.18684109,"ECCENTRICITY":0.0001832,"INCLINATION":87.9178,"RA_OF_ASC_NODE":343.6322,"ARG_OF_PERICENTER":87.6443,"MEAN_ANOMALY":272.4898,"EPHEMERIS_TYPE":0,"CLASSIFICATION_TYPE":"U","NORAD_CAT_ID":49102,"ELEMENT_SET_NO":999,"REV_AT_EPOCH":23179,"BSTAR":0.00020204,"MEAN_MOTION_DOT":9.3e-07,"MEAN_MOTION_DDOT":0.0},{"OBJECT_NAME":"ONEWEB-0317","OBJECT_ID":"2021-075AE","EPOCH":"2026-05-07T04:42:39.633984","MEAN_MOTION":13.12442617,"ECCENTRICITY":0.0001672,"INCLINATION":87.8992,"RA_OF_ASC_NODE":358.8142,"ARG_OF_PERICENTER":56.3083,"MEAN_ANOMALY":303.8205,"EPHEMERIS_TYPE":0,"CLASSIFICATION_TYPE":"U","NORAD_CAT_ID":49103,"ELEMENT_SET_NO":999,"REV_AT_EPOCH":22981,"BSTAR":-0.00074705,"MEAN_MOTION_DOT":-2.56e-06,"MEAN_MOTION_DDOT":0.0},{"OBJECT_NAME":"ONEWEB-0318","OBJECT_ID":"2021-075AF","EPOCH":"2026-05-07T02:32:58.596000","MEAN_MOTION":13.1868407,"ECCENTRICITY":0.0001935,"INCLINATION":87.9189,"RA_OF_ASC_NODE":343.6306,"ARG_OF_PERICENTER":92.4158,"MEAN_ANOMALY":267.7196,"EPHEMERIS_TYPE":0,"CLASSIFICATION_TYPE":"U","NORAD_CAT_ID":49104,"ELEMENT_SET_NO":999,"REV_AT_EPOCH":23175,"BSTAR":0.00012578,"MEAN_MOTION_DOT":6.2e-07,"MEAN_MOTION_DDOT":0.0},{"OBJECT_NAME":"ONEWEB-0319","OBJECT_ID":"2021-075AG","EPOCH":"2026-05-07T05:51:05.613408","MEAN_MOTION":13.17650102,"ECCENTRICITY":0.0002139,"INCLINATION":87.9172,"RA_OF_ASC_NODE":14.0064,"ARG_OF_PERICENTER":94.6735,"MEAN_ANOMALY":265.4641,"EPHEMERIS_TYPE":0,"CLASSIFICATION_TYPE":"U","NORAD_CAT_ID":49105,"ELEMENT_SET_NO":999,"REV_AT_EPOCH":22821,"BSTAR":9.6078e-05,"MEAN_MOTION_DOT":5e-07,"MEAN_MOTION_DDOT":0.0},{"OBJECT_NAME":"ONEWEB-0323","OBJECT_ID":"2021-075AH","EPOCH":"2026-05-07T04:15:49.573440","MEAN_MOTION":13.12455971,"ECCENTRICITY":0.0001962,"INCLINATION":87.8984,"RA_OF_ASC_NODE":358.8007,"ARG_OF_PERICENTER":97.2208,"MEAN_ANOMALY":262.9144,"EPHEMERIS_TYPE":0,"CLASSIFICATION_TYPE":"U","NORAD_CAT_ID":49106,"ELEMENT_SET_NO":999,"REV_AT_EPOCH":22917,"BSTAR":-0.0057646,"MEAN_MOTION_DOT":-2.061e-05,"MEAN_MOTION_DDOT":0.0},{"OBJECT_NAME":"ONEWEB-0329","OBJECT_ID":"2021-075AJ","EPOCH":"2026-05-07T04:13:53.328288","MEAN_MOTION":13.17649261,"ECCENTRICITY":0.0001706,"INCLINATION":87.9171,"RA_OF_ASC_NODE":14.0202,"ARG_OF_PERICENTER":85.4013,"MEAN_ANOMALY":274.7313,"EPHEMERIS_TYPE":0,"CLASSIFICATION_TYPE":"U","NORAD_CAT_ID":49107,"ELEMENT_SET_NO":999,"REV_AT_EPOCH":22818,"BSTAR":-0.00012230000000000002,"MEAN_MOTION_DOT":-3.5e-07,"MEAN_MOTION_DDOT":0.0},{"OBJECT_NAME":"ONEWEB-0330","OBJECT_ID":"2021-075AK","EPOCH":"2026-05-07T04:48:06.238944","MEAN_MOTION":13.17650421,"ECCENTRICITY":0.0001549,"INCLINATION":87.9173,"RA_OF_ASC_NODE":14.0351,"ARG_OF_PERICENTER":83.7455,"MEAN_ANOMALY":276.3853,"EPHEMERIS_TYPE":0,"CLASSIFICATION_TYPE":"U","NORAD_CAT_ID":49108,"ELEMENT_SET_NO":999,"REV_AT_EPOCH":22822,"BSTAR":0.00029135,"MEAN_MOTION_DOT":1.26e-06,"MEAN_MOTION_DDOT":0.0},{"OBJECT_NAME":"ONEWEB-0292","OBJECT_ID":"2021-083A","EPOCH":"2026-05-07T06:11:47.634144","MEAN_MOTION":13.13470525,"ECCENTRICITY":0.0001892,"INCLINATION":87.8939,"RA_OF_ASC_NODE":328.3973,"ARG_OF_PERICENTER":91.6504,"MEAN_ANOMALY":268.4842,"EPHEMERIS_TYPE":0,"CLASSIFICATION_TYPE":"U","NORAD_CAT_ID":49186,"ELEMENT_SET_NO":999,"REV_AT_EPOCH":22555,"BSTAR":0.00012172,"MEAN_MOTION_DOT":5.7e-07,"MEAN_MOTION_DDOT":0.0},{"OBJECT_NAME":"ONEWEB-0303","OBJECT_ID":"2021-083B","EPOCH":"2026-05-07T02:28:07.373568","MEAN_MOTION":13.18685255,"ECCENTRICITY":0.0001849,"INCLINATION":87.9182,"RA_OF_ASC_NODE":343.632,"ARG_OF_PERICENTER":91.3562,"MEAN_ANOMALY":268.7782,"EPHEMERIS_TYPE":0,"CLASSIFICATION_TYPE":"U","NORAD_CAT_ID":49187,"ELEMENT_SET_NO":999,"REV_AT_EPOCH":22456,"BSTAR":-0.0002517,"MEAN_MOTION_DOT":-8.6e-07,"MEAN_MOTION_DDOT":0.0},{"OBJECT_NAME":"ONEWEB-0306","OBJECT_ID":"2021-083C","EPOCH":"2026-05-07T02:13:33.469536","MEAN_MOTION":13.18687365,"ECCENTRICITY":0.0001651,"INCLINATION":87.9191,"RA_OF_ASC_NODE":343.6193,"ARG_OF_PERICENTER":80.5807,"MEAN_ANOMALY":279.5512,"EPHEMERIS_TYPE":0,"CLASSIFICATION_TYPE":"U","NORAD_CAT_ID":49188,"ELEMENT_SET_NO":999,"REV_AT_EPOCH":22460,"BSTAR":0.00016133,"MEAN_MOTION_DOT":7.7e-07,"MEAN_MOTION_DDOT":0.0},{"OBJECT_NAME":"ONEWEB-0307","OBJECT_ID":"2021-083D","EPOCH":"2026-05-07T06:03:14.963328","MEAN_MOTION":13.13470059,"ECCENTRICITY":0.0001779,"INCLINATION":87.8953,"RA_OF_ASC_NODE":328.3915,"ARG_OF_PERICENTER":91.087,"MEAN_ANOMALY":269.0463,"EPHEMERIS_TYPE":0,"CLASSIFICATION_TYPE":"U","NORAD_CAT_ID":49189,"ELEMENT_SET_NO":999,"REV_AT_EPOCH":22555,"BSTAR":0.00041346,"MEAN_MOTION_DOT":1.64e-06,"MEAN_MOTION_DDOT":0.0},{"OBJECT_NAME":"ONEWEB-0320","OBJECT_ID":"2021-083E","EPOCH":"2026-05-07T02:42:42.870816","MEAN_MOTION":13.18722538,"ECCENTRICITY":0.0001507,"INCLINATION":87.9164,"RA_OF_ASC_NODE":343.6384,"ARG_OF_PERICENTER":83.7312,"MEAN_ANOMALY":276.3992,"EPHEMERIS_TYPE":0,"CLASSIFICATION_TYPE":"U","NORAD_CAT_ID":49190,"ELEMENT_SET_NO":999,"REV_AT_EPOCH":22456,"BSTAR":-0.00086374,"MEAN_MOTION_DOT":-3.28e-06,"MEAN_MOTION_DDOT":0.0}]