ONEWEB-0312             
1 49098U 21075Z   26127.18137204  .00000010  00000+0 -82058-5 0  9998
2 49098  87.9176  14.0243 0001572  90.0213 270.1099 13.17649253228207
ONEWEB-0313             
1 49099U 21075AA  26127.18631276  .00000087  00000+0  19139-3 0  9998
2 49099  87.9167  14.0303 0001792  85.1971 274.9365 13.17648428228194
ONEWEB-0314             
1 49100U 21075AB  26127.22862314  .00000042  00000+0  74341-4 0  9993
2 49100  87.9182  13.9895 0001555  90.7277 269.4033 13.17650318228176
ONEWEB-0315             
1 49101U 21075AC  26127.19290524 -.00000133  00000+0 -40539-3 0  9992
2 49101  87.8987 358.7918 0001981  89.7762 270.3594 13.12443297229798
ONEWEB-0316             
1 49102U 21075AD  26127.10960727  .00000093  00000+0  20204-3 0  9993
2 49102  87.9178 343.6322 0001832  87.6443 272.4898 13.18684109231790
ONEWEB-0317             
1 49103U 21075AE  26127.19629206 -.00000256  00000+0 -74705-3 0  9995
2 49103  87.8992 358.8142 0001672  56.3083 303.8205 13.12442617229818
ONEWEB-0318             
1 49104U 21075AF  26127.10623375  .00000062  00000+0  12578-3 0  9991
2 49104  87.9189 343.6306 0001935  92.4158 267.7196 13.18684070231758
ONEWEB-0319             
1 49105U 21075AG  26127.24381497  .00000050  00000+0  96078-4 0  9998
2 49105  87.9172  14.0064 0002139  94.6735 265.4641 13.17650102228218
ONEWEB-0323             
1 49106U 21075AH  26127.17765710 -.00002061  00000+0 -57646-2 0  9997
2 49106  87.8984 358.8007 0001962  97.2208 262.9144 13.12455971229170
ONEWEB-0329             
1 49107U 21075AJ  26127.17631167 -.00000035  00000+0 -12230-3 0  9996
2 49107  87.9171  14.0202 0001706  85.4013 274.7313 13.17649261228188
ONEWEB-0330             
1 49108U 21075AK  26127.20007221  .00000126  00000+0  29135-3 0  9990
2 49108  87.9173  14.0351 0001549  83.7455 276.3853 13.17650421228224
ONEWEB-0292             
1 49186U 21083A   26127.25819021  .00000057  00000+0  12172-3 0  9995
2 49186  87.8939 328.3973 0001892  91.6504 268.4842 13.13470525225558
ONEWEB-0303             
1 49187U 21083B   26127.10286312 -.00000086  00000+0 -25170-3 0  9997
2 49187  87.9182 343.6320 0001849  91.3562 268.7782 13.18685255224568
ONEWEB-0306             
1 49188U 21083C   26127.09274849  .00000077  00000+0  16133-3 0  9995
2 49188  87.9191 343.6193 0001651  80.5807 279.5512 13.18687365224600
ONEWEB-0307             
1 49189U 21083D   26127.25225652  .00000164  00000+0  41346-3 0  9993
2 49189  87.8953 328.3915 0001779  91.0870 269.0463 13.13470059225555
ONEWEB-0320             
1 49190U 21083E   26127.11299619 -.00000328  00000+0 -86374-3 0  9998
2 49190  87.9164 343.6384 0001507  83.7312 276.3992 13.18722538224565
